{
  "norad_id": 64562,
  "name": "HUBBLE 6",
  "history": [
    {
      "epoch": "2026-03-28T20:25:37.442784Z",
      "apogee_km": 592.024313371533,
      "perigee_km": 589.7869719215378,
      "latitude_deg": -1.2506105492160775e-05,
      "longitude_deg": 70.30144433842334,
      "height_km": 594.04894386955,
      "semi_major_axis_km": 6969.042642646535,
      "eccentricity": 0.00016052,
      "inclination_deg": 97.7647,
      "raan_deg": 202.9731,
      "arg_perigee_deg": 95.3154,
      "mean_anomaly_deg": 264.8248,
      "mean_motion_rev_day": 14.92255125
    }
  ]
}